STARLINK-32152          
1 60275U 24131W   26068.37515479 -.00000093  00000+0  89826-5 0  9994
2 60275  53.1607  53.6603 0001150  77.1887 282.9242 15.30192193 91577
HAWK-11C                
1 62381U 24247E   26068.51221537  .00009223  00000+0  33290-3 0  9992
2 62381  45.0045 114.8762 0005900 329.7040  30.3502 15.28848020 67743
